ONEWEB-0647             
1 56079U 23043AK  26160.51940700  .00000026  00000+0  36054-4 0  9999
2 56079  87.9003 260.7544 0001854  96.8428 263.2913 13.15548582155413
ONEWEB-0651             
1 56080U 23043AL  26160.51465100  .00000104  00000+0  24303-3 0  9997
2 56080  87.9000 260.7492 0002132  95.6367 264.5006 13.15548756156616
ONEWEB-0718             
1 56081U 23043AM  26160.50987876  .00000142  00000+0  34241-3 0  9990
2 56081  87.9001 260.7307 0002228 112.7870 247.3496 13.15551047155426
ONEWEB-0561             
1 56710U 23068A   26160.31897300  .00001255  00000+0  30556-2 0  9997
2 56710  87.9188 276.0110 0001578  91.2297 268.9017 13.20762889148462
ONEWEB-0668             
1 56711U 23068B   26160.44923902  .00000011  00000+0 -45072-5 0  9992
2 56711  87.9101 230.3089 0002567 103.4582 256.6835 13.16594530150767
ONEWEB-0676             
1 56712U 23068C   26160.45713965 -.00000269  00000+0 -73680-3 0  9990
2 56712  87.9103 230.3132 0002169  89.3522 270.7857 13.16594641150688
ONEWEB-0677             
1 56713U 23068D   26160.38292638  .00000001  00000+0 -29173-4 0  9994
2 56713  87.9191 275.9902 0002311  94.9752 265.1645 13.20770032148777
ONEWEB-0678             
1 56714U 23068E   26160.32608493  .00000006  00000+0 -16995-4 0  9992
2 56714  87.9007 260.7588 0001661  98.8247 261.3072 13.15548317148253
ONEWEB-0679             
1 56715U 23068F   26160.49198701  .00000050  00000+0  96043-4 0  9997
2 56715  87.9103 230.2978 0002598  95.0950 265.0478 13.16594398150712
ONEWEB-0680             
1 56716U 23068G   26160.52625147  .00000009  00000+0 -10913-4 0  9998
2 56716  87.9265 245.4945 0002601 102.4577 257.6848 13.21828145150081
ONEWEB-0681             
1 56717U 23068H   26160.27981689  .00000084  00000+0  17081-3 0  9991
2 56717  87.9257 245.5452 0002301  74.9729 285.1659 13.21826758150046
ONEWEB-0682             
1 56718U 23068J   26160.50197719  .00000168  00000+0  41310-3 0  9996
2 56718  87.9008 260.7245 0002494 103.4677 256.6731 13.15548291148444
ONEWEB-0683             
1 56719U 23068K   26160.52574375 -.00000027  00000+0 -10512-3 0  9992
2 56719  87.9012 260.7190 0002205 105.6256 254.5117 13.15548846148414
ONEWEB-0684             
1 56720U 23068L   26160.53365943 -.00000052  00000+0 -17306-3 0  9990
2 56720  87.9009 260.7080 0001040 139.7141 220.4067 13.15548202148240
ONEWEB-0686             
1 56721U 23068M   26160.45240889 -.00000050  00000+0 -16456-3 0  9996
2 56721  87.9092 230.3300 0002127 107.9510 252.1853 13.16594713150691
ONEWEB-0694             
1 56722U 23068N   26160.45873911  .00000023  00000+0  25470-4 0  9990
2 56722  87.9111 230.2915 0002537 102.6836 257.4578 13.16594705150753
ONEWEB-0696             
1 56723U 23068P   26160.18662757 -.00003896  00000+0 -10383-1 0  9992
2 56723  87.8999 260.8158 0001607  97.5474 262.5839 13.15568306148315
ONEWEB-0703             
1 56724U 23068Q   26160.27221654  .00000267  00000+0  67649-3 0  9996
2 56724  87.9000 260.7799 0001329  78.8749 281.2530 13.15548357148217
ONEWEB-0721             
1 56725U 23068R   26160.49831632  .00000016  00000+0  36153-5 0  9994
2 56725  86.6766  87.9700 0001934  78.4000 281.7350 13.22468718156924
ONEWEB-0015             
1 61594U 24188A   26160.37460355  .00000557  00000+0  15346-2 0  9993
2 61594  87.8893  22.6483 0002327  77.4334 282.7054 13.11417457 83437
ONEWEB-0687             
1 61595U 24188B   26160.48528619  .00000025  00000+0  30128-4 0  9991
2 61595  87.9133   7.4095 0002336  90.1922 269.9478 13.17647776 84883
ONEWEB-0688             
1 61596U 24188C   26160.51397705  .00000063  00000+0  12891-3 0  9994
2 61596  87.9135   7.4033 0002926  71.7553 288.3896 13.17648503 84886
ONEWEB-0689             
1 61597U 24188D   26160.33220205 -.00000470  00000+0 -13624-2 0  9993
2 61597  87.8909  22.6138 0001982  93.2452 266.8903 13.11417151 83424
ONEWEB-0690             
1 61598U 24188E   26160.34237317 -.00000524  00000+0 -15151-2 0  9994
2 61598  87.8902  22.6242 0001433  65.7477 294.3800 13.11419555 83608
ONEWEB-0691             
1 61599U 24188F   26160.33729662 -.00000527  00000+0 -15227-2 0  9990
2 61599  87.8912  22.5333 0002209  81.6429 278.4949 13.11416502 83455
ONEWEB-0692             
1 61600U 24188G   26160.35763992  .00000031  00000+0  50487-4 0  9996
2 61600  87.8893  22.6437 0001582 110.5758 249.5540 13.11420225 83444
ONEWEB-0693             
1 61601U 24188H   26160.29797468  .00000012  00000+0 -16813-5 0  9991
2 61601  87.9129   7.4669 0001593  61.3939 298.7353 13.17647416 84844
ONEWEB-0695             
1 61602U 24188J   26160.33389863 -.00000470  00000+0 -13612-2 0  9993
2 61602  87.8895  22.6400 0001889 101.4871 258.6469 13.11415028 83438
ONEWEB-0697             
1 61603U 24188K   26160.36612453  .00000382  00000+0  10422-2 0  9997
2 61603  87.8894  22.6240 0001475 108.4179 251.7109 13.11419118 83427
ONEWEB-0698             
1 61604U 24188L   26160.34406632 -.00000663  00000+0 -19055-2 0  9991
2 61604  87.8892  22.6429 0000652  93.6050 266.5153 13.11417573 83442
ONEWEB-0699             
1 61605U 24188M   26160.35069808  .00000440  00000+0  12254-2 0  9998
2 61605  87.8836  37.8268 0001397 100.9531 259.1753 13.10370421 82287
