OBJECT_NAME,OBJECT_ID,EPOCH,MEAN_MOTION,ECCENTRICITY,INCLINATION,RA_OF_ASC_NODE,ARG_OF_PERICENTER,MEAN_ANOMALY,EPHEMERIS_TYPE,CLASSIFICATION_TYPE,NORAD_CAT_ID,ELEMENT_SET_NO,REV_AT_EPOCH,BSTAR,MEAN_MOTION_DOT,MEAN_MOTION_DDOT
ONEWEB-0647,2023-043AK,2026-06-09T12:27:56.764800,13.15548582,.0001854,87.9003,260.7544,96.8428,263.2913,0,U,56079,999,15541,.36054E-4,.26E-6,0
ONEWEB-0651,2023-043AL,2026-06-09T12:21:05.846400,13.15548756,.0002132,87.9000,260.7492,95.6367,264.5006,0,U,56080,999,15661,.24303E-3,.104E-5,0
ONEWEB-0718,2023-043AM,2026-06-09T12:14:13.524864,13.15551047,.0002228,87.9001,260.7307,112.7870,247.3496,0,U,56081,999,15542,.34241E-3,.142E-5,0
ONEWEB-0561,2023-068A,2026-06-09T07:39:19.267200,13.20762889,.0001578,87.9188,276.0110,91.2297,268.9017,0,U,56710,999,14846,.30556E-2,.1255E-4,0
ONEWEB-0668,2023-068B,2026-06-09T10:46:54.251328,13.16594530,.0002567,87.9101,230.3089,103.4582,256.6835,0,U,56711,999,15076,-.45072E-5,.11E-6,0
ONEWEB-0676,2023-068C,2026-06-09T10:58:16.865760,13.16594641,.0002169,87.9103,230.3132,89.3522,270.7857,0,U,56712,999,15068,-.7368E-3,-.269E-5,0
ONEWEB-0677,2023-068D,2026-06-09T09:11:24.839232,13.20770032,.0002311,87.9191,275.9902,94.9752,265.1645,0,U,56713,999,14877,-.29173E-4,.1E-7,0
ONEWEB-0678,2023-068E,2026-06-09T07:49:33.737952,13.15548317,.0001661,87.9007,260.7588,98.8247,261.3072,0,U,56714,999,14825,-.16995E-4,.6E-7,0
ONEWEB-0679,2023-068F,2026-06-09T11:48:27.677664,13.16594398,.0002598,87.9103,230.2978,95.0950,265.0478,0,U,56715,999,15071,.96043E-4,.5E-6,0
ONEWEB-0680,2023-068G,2026-06-09T12:37:48.127008,13.21828145,.0002601,87.9265,245.4945,102.4577,257.6848,0,U,56716,999,15008,-.10913E-4,.9E-7,0
ONEWEB-0681,2023-068H,2026-06-09T06:42:56.179296,13.21826758,.0002301,87.9257,245.5452,74.9729,285.1659,0,U,56717,999,15004,.17081E-3,.84E-6,0
ONEWEB-0682,2023-068J,2026-06-09T12:02:50.829216,13.15548291,.0002494,87.9008,260.7245,103.4677,256.6731,0,U,56718,999,14844,.4131E-3,.168E-5,0
ONEWEB-0683,2023-068K,2026-06-09T12:37:04.260000,13.15548846,.0002205,87.9012,260.7190,105.6256,254.5117,0,U,56719,999,14841,-.10512E-3,-.27E-6,0
ONEWEB-0684,2023-068L,2026-06-09T12:48:28.174752,13.15548202,.000104,87.9009,260.7080,139.7141,220.4067,0,U,56720,999,14824,-.17306E-3,-.52E-6,0
ONEWEB-0686,2023-068M,2026-06-09T10:51:28.128096,13.16594713,.0002127,87.9092,230.3300,107.9510,252.1853,0,U,56721,999,15069,-.16456E-3,-.5E-6,0
ONEWEB-0694,2023-068N,2026-06-09T11:00:35.059104,13.16594705,.0002537,87.9111,230.2915,102.6836,257.4578,0,U,56722,999,15075,.2547E-4,.23E-6,0
ONEWEB-0696,2023-068P,2026-06-09T04:28:44.622048,13.15568306,.00016073,87.8999,260.8158,97.5474,262.5839,0,U,56723,999,14831,-.10383444E-1,-.3896E-4,0
ONEWEB-0703,2023-068Q,2026-06-09T06:31:59.509056,13.15548357,.0001329,87.9000,260.7799,78.8749,281.2530,0,U,56724,999,14821,.67649E-3,.267E-5,0
ONEWEB-0721,2023-068R,2026-06-09T11:57:34.530048,13.22468718,.0001934,86.6766,87.9700,78.4000,281.7350,0,U,56725,999,15692,.36153E-5,.16E-6,0
ONEWEB-0015,2024-188A,2026-06-09T08:59:25.746720,13.11417457,.0002327,87.8893,22.6483,77.4334,282.7054,0,U,61594,999,8343,.15346E-2,.557E-5,0
ONEWEB-0687,2024-188B,2026-06-09T11:38:48.726816,13.17647776,.0002336,87.9133,7.4095,90.1922,269.9478,0,U,61595,999,8488,.30128E-4,.25E-6,0
ONEWEB-0688,2024-188C,2026-06-09T12:20:07.617120,13.17648503,.0002926,87.9135,7.4033,71.7553,288.3896,0,U,61596,999,8488,.12891E-3,.63E-6,0
ONEWEB-0689,2024-188D,2026-06-09T07:58:22.257120,13.11417151,.0001982,87.8909,22.6138,93.2452,266.8903,0,U,61597,999,8342,-.13624E-2,-.47E-5,0
ONEWEB-0690,2024-188E,2026-06-09T08:13:01.041888,13.11419555,.0001433,87.8902,22.6242,65.7477,294.3800,0,U,61598,999,8360,-.15151E-2,-.524E-5,0
ONEWEB-0691,2024-188F,2026-06-09T08:05:42.427968,13.11416502,.0002209,87.8912,22.5333,81.6429,278.4949,0,U,61599,999,8345,-.15227E-2,-.527E-5,0
ONEWEB-0692,2024-188G,2026-06-09T08:35:00.089088,13.11420225,.0001582,87.8893,22.6437,110.5758,249.5540,0,U,61600,999,8344,.50487E-4,.31E-6,0
ONEWEB-0693,2024-188H,2026-06-09T07:09:05.012352,13.17647416,.0001593,87.9129,7.4669,61.3939,298.7353,0,U,61601,999,8484,-.16813E-5,.12E-6,0
ONEWEB-0695,2024-188J,2026-06-09T08:00:48.841632,13.11415028,.0001889,87.8895,22.6400,101.4871,258.6469,0,U,61602,999,8343,-.13612E-2,-.47E-5,0
ONEWEB-0697,2024-188K,2026-06-09T08:47:13.159392,13.11419118,.0001475,87.8894,22.6240,108.4179,251.7109,0,U,61603,999,8342,.10422E-2,.382E-5,0
ONEWEB-0698,2024-188L,2026-06-09T08:15:27.330048,13.11417573,.0000652,87.8892,22.6429,93.6050,266.5153,0,U,61604,999,8344,-.19055E-2,-.663E-5,0
ONEWEB-0699,2024-188M,2026-06-09T08:25:00.314112,13.10370421,.0001397,87.8836,37.8268,100.9531,259.1753,0,U,61605,999,8228,.12254E-2,.44E-5,0
